STARLINK-32479          
1 62148U 24224K   26068.25400864  .00039372  00000+0  14322-2 0  9993
2 62148  42.9968 160.5456 0000372 280.0789  80.0020 15.27590966 72351
HAWK-11C                
1 62381U 24247E   26068.51221537  .00009223  00000+0  33290-3 0  9992
2 62381  45.0045 114.8762 0005900 329.7040  30.3502 15.28848020 67743
